ONEWEB-0602             
1 54666U 22166AA  26131.05931042  .00000063  00000+0  12057-3 0  9997
2 54666  87.9237 251.3908 0002093  93.6017 266.5357 13.21828612166644
ONEWEB-0603             
1 54667U 22166AB  26131.06520147  .00000088  00000+0  18163-3 0  9990
2 54667  87.9247 251.3430 0002060  99.5286 260.6081 13.21823854166577
ONEWEB-0604             
1 54668U 22166AC  26131.05343201  .00000081  00000+0  16430-3 0  9992
2 54668  87.9250 251.3603 0001862  99.2416 260.8929 13.21824762166533
ONEWEB-0605             
1 54669U 22166AD  26131.04669419  .00000094  00000+0  19634-3 0  9997
2 54669  87.9238 251.3785 0002352 113.8970 246.2411 13.21828056166606
ONEWEB-0606             
1 54670U 22166AE  26131.06856706 -.00000015  00000+0 -66670-4 0  9996
2 54670  87.9238 251.3867 0001787  99.0548 261.0788 13.21823756166666
ONEWEB-0607             
1 54671U 22166AF  26131.03493836  .00000063  00000+0  12017-3 0  9991
2 54671  87.9245 251.3619 0002072  98.0854 262.0515 13.21827156166631
ONEWEB-0608             
1 54672U 22166AG  26131.04164400 -.00000549  00000+0 -13609-2 0  9993
2 54672  87.9247 251.3565 0002496 106.4823 253.6585 13.21825108166643
ONEWEB-0610             
1 54673U 22166AH  26131.09717712  .00000070  00000+0  13760-3 0  9995
2 54673  87.9238 251.3632 0002570 101.7474 258.3948 13.21826588166550
ONEWEB-0611             
1 54674U 22166AJ  26130.86335086 -.00000054  00000+0 -16255-3 0  9996
2 54674  87.9237 251.4059 0001809 100.3066 259.8272 13.21825161166518
ONEWEB-0612             
1 54675U 22166AK  26131.02820602  .00000035  00000+0  52153-4 0  9994
2 54675  87.9249 251.3643 0002120 102.2854 257.8517 13.21827541166528
ONEWEB-0615             
1 54676U 22166AL  26131.08370557 -.00000131  00000+0 -34964-3 0  9998
2 54676  87.9241 251.3712 0001784  93.9295 266.2043 13.21823836166541
ONEWEB-0655             
1 54677U 22166AM  26131.06015985  .00000007  00000+0 -13886-4 0  9990
2 54677  87.9239 251.3776 0002142  94.4254 265.7125 13.21824222166533
ONEWEB-0659             
1 54678U 22166AN  26131.07698903 -.00000001  00000+0 -32972-4 0  9991
2 54678  87.9239 251.3745 0001882 101.3325 258.8021 13.21825884166620
ONEWEB-0685             
1 54679U 22166AP  26131.07711694  .00000067  00000+0  13127-3 0  9995
2 54679  87.9236 251.3675 0002158  96.8325 263.3055 13.21818038166514
ONEWEB-0712             
1 54680U 22166AQ  26131.20148953  .00000103  00000+0  23642-3 0  9998
2 54680  87.9100 236.1175 0002195  89.4047 270.7335 13.16594806167198
ONEWEB-0714             
1 54681U 22166AR  26131.08203803 -.00000044  00000+0 -13903-3 0  9996
2 54681  87.9239 251.3630 0002086  94.7399 265.3973 13.21826095166635
