[{"OBJECT_NAME":"ONEWEB-0602","OBJECT_ID":"2022-166AA","EPOCH":"2026-05-11T01:25:24.420288","MEAN_MOTION":13.21828612,"ECCENTRICITY":0.0002093,"INCLINATION":87.9237,"RA_OF_ASC_NODE":251.3908,"ARG_OF_PERICENTER":93.6017,"MEAN_ANOMALY":266.5357,"EPHEMERIS_TYPE":0,"CLASSIFICATION_TYPE":"U","NORAD_CAT_ID":54666,"ELEMENT_SET_NO":999,"REV_AT_EPOCH":16664,"BSTAR":0.00012056999999999999,"MEAN_MOTION_DOT":6.3e-07,"MEAN_MOTION_DDOT":0.0},{"OBJECT_NAME":"ONEWEB-0603","OBJECT_ID":"2022-166AB","EPOCH":"2026-05-11T01:33:53.407008","MEAN_MOTION":13.21823854,"ECCENTRICITY":0.000206,"INCLINATION":87.9247,"RA_OF_ASC_NODE":251.343,"ARG_OF_PERICENTER":99.5286,"MEAN_ANOMALY":260.6081,"EPHEMERIS_TYPE":0,"CLASSIFICATION_TYPE":"U","NORAD_CAT_ID":54667,"ELEMENT_SET_NO":999,"REV_AT_EPOCH":16657,"BSTAR":0.00018163,"MEAN_MOTION_DOT":8.8e-07,"MEAN_MOTION_DDOT":0.0},{"OBJECT_NAME":"ONEWEB-0604","OBJECT_ID":"2022-166AC","EPOCH":"2026-05-11T01:16:56.525664","MEAN_MOTION":13.21824762,"ECCENTRICITY":0.0001862,"INCLINATION":87.925,"RA_OF_ASC_NODE":251.3603,"ARG_OF_PERICENTER":99.2416,"MEAN_ANOMALY":260.8929,"EPHEMERIS_TYPE":0,"CLASSIFICATION_TYPE":"U","NORAD_CAT_ID":54668,"ELEMENT_SET_NO":999,"REV_AT_EPOCH":16653,"BSTAR":0.0001643,"MEAN_MOTION_DOT":8.1e-07,"MEAN_MOTION_DDOT":0.0},{"OBJECT_NAME":"ONEWEB-0605","OBJECT_ID":"2022-166AD","EPOCH":"2026-05-11T01:07:14.378016","MEAN_MOTION":13.21828056,"ECCENTRICITY":0.0002352,"INCLINATION":87.9238,"RA_OF_ASC_NODE":251.3785,"ARG_OF_PERICENTER":113.897,"MEAN_ANOMALY":246.2411,"EPHEMERIS_TYPE":0,"CLASSIFICATION_TYPE":"U","NORAD_CAT_ID":54669,"ELEMENT_SET_NO":999,"REV_AT_EPOCH":16660,"BSTAR":0.00019633999999999998,"MEAN_MOTION_DOT":9.4e-07,"MEAN_MOTION_DDOT":0.0},{"OBJECT_NAME":"ONEWEB-0606","OBJECT_ID":"2022-166AE","EPOCH":"2026-05-11T01:38:44.193984","MEAN_MOTION":13.21823756,"ECCENTRICITY":0.0001787,"INCLINATION":87.9238,"RA_OF_ASC_NODE":251.3867,"ARG_OF_PERICENTER":99.0548,"MEAN_ANOMALY":261.0788,"EPHEMERIS_TYPE":0,"CLASSIFICATION_TYPE":"U","NORAD_CAT_ID":54670,"ELEMENT_SET_NO":999,"REV_AT_EPOCH":16666,"BSTAR":-6.667e-05,"MEAN_MOTION_DOT":-1.5e-07,"MEAN_MOTION_DDOT":0.0},{"OBJECT_NAME":"ONEWEB-0607","OBJECT_ID":"2022-166AF","EPOCH":"2026-05-11T00:50:18.674304","MEAN_MOTION":13.21827156,"ECCENTRICITY":0.0002072,"INCLINATION":87.9245,"RA_OF_ASC_NODE":251.3619,"ARG_OF_PERICENTER":98.0854,"MEAN_ANOMALY":262.0515,"EPHEMERIS_TYPE":0,"CLASSIFICATION_TYPE":"U","NORAD_CAT_ID":54671,"ELEMENT_SET_NO":999,"REV_AT_EPOCH":16663,"BSTAR":0.00012017,"MEAN_MOTION_DOT":6.3e-07,"MEAN_MOTION_DDOT":0.0},{"OBJECT_NAME":"ONEWEB-0608","OBJECT_ID":"2022-166AG","EPOCH":"2026-05-11T00:59:58.041600","MEAN_MOTION":13.21825108,"ECCENTRICITY":0.0002496,"INCLINATION":87.9247,"RA_OF_ASC_NODE":251.3565,"ARG_OF_PERICENTER":106.4823,"MEAN_ANOMALY":253.6585,"EPHEMERIS_TYPE":0,"CLASSIFICATION_TYPE":"U","NORAD_CAT_ID":54672,"ELEMENT_SET_NO":999,"REV_AT_EPOCH":16664,"BSTAR":-0.0013609,"MEAN_MOTION_DOT":-5.49e-06,"MEAN_MOTION_DDOT":0.0},{"OBJECT_NAME":"ONEWEB-0610","OBJECT_ID":"2022-166AH","EPOCH":"2026-05-11T02:19:56.103168","MEAN_MOTION":13.21826588,"ECCENTRICITY":0.000257,"INCLINATION":87.9238,"RA_OF_ASC_NODE":251.3632,"ARG_OF_PERICENTER":101.7474,"MEAN_ANOMALY":258.3948,"EPHEMERIS_TYPE":0,"CLASSIFICATION_TYPE":"U","NORAD_CAT_ID":54673,"ELEMENT_SET_NO":999,"REV_AT_EPOCH":16655,"BSTAR":0.0001376,"MEAN_MOTION_DOT":7e-07,"MEAN_MOTION_DDOT":0.0},{"OBJECT_NAME":"ONEWEB-0611","OBJECT_ID":"2022-166AJ","EPOCH":"2026-05-10T20:43:13.514304","MEAN_MOTION":13.21825161,"ECCENTRICITY":0.0001809,"INCLINATION":87.9237,"RA_OF_ASC_NODE":251.4059,"ARG_OF_PERICENTER":100.3066,"MEAN_ANOMALY":259.8272,"EPHEMERIS_TYPE":0,"CLASSIFICATION_TYPE":"U","NORAD_CAT_ID":54674,"ELEMENT_SET_NO":999,"REV_AT_EPOCH":16651,"BSTAR":-0.00016255,"MEAN_MOTION_DOT":-5.4e-07,"MEAN_MOTION_DDOT":0.0},{"OBJECT_NAME":"ONEWEB-0612","OBJECT_ID":"2022-166AK","EPOCH":"2026-05-11T00:40:37.000128","MEAN_MOTION":13.21827541,"ECCENTRICITY":0.000212,"INCLINATION":87.9249,"RA_OF_ASC_NODE":251.3643,"ARG_OF_PERICENTER":102.2854,"MEAN_ANOMALY":257.8517,"EPHEMERIS_TYPE":0,"CLASSIFICATION_TYPE":"U","NORAD_CAT_ID":54675,"ELEMENT_SET_NO":999,"REV_AT_EPOCH":16652,"BSTAR":5.215300000000001e-05,"MEAN_MOTION_DOT":3.5e-07,"MEAN_MOTION_DDOT":0.0},{"OBJECT_NAME":"ONEWEB-0615","OBJECT_ID":"2022-166AL","EPOCH":"2026-05-11T02:00:32.161248","MEAN_MOTION":13.21823836,"ECCENTRICITY":0.0001784,"INCLINATION":87.9241,"RA_OF_ASC_NODE":251.3712,"ARG_OF_PERICENTER":93.9295,"MEAN_ANOMALY":266.2043,"EPHEMERIS_TYPE":0,"CLASSIFICATION_TYPE":"U","NORAD_CAT_ID":54676,"ELEMENT_SET_NO":999,"REV_AT_EPOCH":16654,"BSTAR":-0.00034964,"MEAN_MOTION_DOT":-1.31e-06,"MEAN_MOTION_DDOT":0.0},{"OBJECT_NAME":"ONEWEB-0655","OBJECT_ID":"2022-166AM","EPOCH":"2026-05-11T01:26:37.811040","MEAN_MOTION":13.21824222,"ECCENTRICITY":0.0002142,"INCLINATION":87.9239,"RA_OF_ASC_NODE":251.3776,"ARG_OF_PERICENTER":94.4254,"MEAN_ANOMALY":265.7125,"EPHEMERIS_TYPE":0,"CLASSIFICATION_TYPE":"U","NORAD_CAT_ID":54677,"ELEMENT_SET_NO":999,"REV_AT_EPOCH":16653,"BSTAR":-1.3886000000000002e-05,"MEAN_MOTION_DOT":7e-08,"MEAN_MOTION_DDOT":0.0},{"OBJECT_NAME":"ONEWEB-0659","OBJECT_ID":"2022-166AN","EPOCH":"2026-05-11T01:50:51.852192","MEAN_MOTION":13.21825884,"ECCENTRICITY":0.0001882,"INCLINATION":87.9239,"RA_OF_ASC_NODE":251.3745,"ARG_OF_PERICENTER":101.3325,"MEAN_ANOMALY":258.8021,"EPHEMERIS_TYPE":0,"CLASSIFICATION_TYPE":"U","NORAD_CAT_ID":54678,"ELEMENT_SET_NO":999,"REV_AT_EPOCH":16662,"BSTAR":-3.2972e-05,"MEAN_MOTION_DOT":-1e-08,"MEAN_MOTION_DDOT":0.0},{"OBJECT_NAME":"ONEWEB-0685","OBJECT_ID":"2022-166AP","EPOCH":"2026-05-11T01:51:02.903616","MEAN_MOTION":13.21818038,"ECCENTRICITY":0.0002158,"INCLINATION":87.9236,"RA_OF_ASC_NODE":251.3675,"ARG_OF_PERICENTER":96.8325,"MEAN_ANOMALY":263.3055,"EPHEMERIS_TYPE":0,"CLASSIFICATION_TYPE":"U","NORAD_CAT_ID":54679,"ELEMENT_SET_NO":999,"REV_AT_EPOCH":16651,"BSTAR":0.00013127,"MEAN_MOTION_DOT":6.7e-07,"MEAN_MOTION_DDOT":0.0},{"OBJECT_NAME":"ONEWEB-0712","OBJECT_ID":"2022-166AQ","EPOCH":"2026-05-11T04:50:08.695392","MEAN_MOTION":13.16594806,"ECCENTRICITY":0.0002195,"INCLINATION":87.91,"RA_OF_ASC_NODE":236.1175,"ARG_OF_PERICENTER":89.4047,"MEAN_ANOMALY":270.7335,"EPHEMERIS_TYPE":0,"CLASSIFICATION_TYPE":"U","NORAD_CAT_ID":54680,"ELEMENT_SET_NO":999,"REV_AT_EPOCH":16719,"BSTAR":0.00023642,"MEAN_MOTION_DOT":1.03e-06,"MEAN_MOTION_DDOT":0.0},{"OBJECT_NAME":"ONEWEB-0714","OBJECT_ID":"2022-166AR","EPOCH":"2026-05-11T01:58:08.085792","MEAN_MOTION":13.21826095,"ECCENTRICITY":0.0002086,"INCLINATION":87.9239,"RA_OF_ASC_NODE":251.363,"ARG_OF_PERICENTER":94.7399,"MEAN_ANOMALY":265.3973,"EPHEMERIS_TYPE":0,"CLASSIFICATION_TYPE":"U","NORAD_CAT_ID":54681,"ELEMENT_SET_NO":999,"REV_AT_EPOCH":16663,"BSTAR":-0.00013903,"MEAN_MOTION_DOT":-4.4e-07,"MEAN_MOTION_DDOT":0.0}]